ONEWEB-0650             
1 55813U 23029T   23335.92852761  .00000085  00000+0  17878-3 0  9990
2 55813  87.9186 129.7330 0001332 114.5860 245.5411 13.19727662 36467
ONEWEB-0652             
1 55814U 23029U   23335.91310346  .00000189  00000+0  47658-3 0  9992
2 55814  87.8969 114.4833 0001580  95.1596 264.9714 13.14501630 37417
ONEWEB-0653             
1 55815U 23029V   23335.89723376 -.00000010  00000+0 -61232-4 0  9991
2 55815  87.9049 114.4544 0001373  86.3365 273.7922 13.14503381 37440
ONEWEB-0654             
1 55816U 23029W   23335.89248442 -.00000083  00000+0 -25776-3 0  9990
2 55816  87.8968 114.4780 0001787  81.9040 278.2293 13.14501946 37460
ONEWEB-0656             
1 55817U 23029X   23335.88087242  .00002756  00000+0  67448-2 0  9997
2 55817  87.9190  99.1979 0002517  95.3116 264.8304 13.20771647 38619
ONEWEB-0657             
1 55818U 23029Y   23335.92380327  .00000079  00000+0  16488-3 0  9998
2 55818  87.9188 129.7391 0002457 105.6146 254.5258 13.19726566 36470
ONEWEB-0658             
1 55819U 23029Z   23335.91906323  .00001303  00000+0  32224-2 0  9994
2 55819  87.9164 129.6763 0001416 118.1882 241.9394 13.19734609 36486
ONEWEB-0660             
1 55820U 23029AA  23335.94639986 -.00000148  00000+0 -43308-3 0  9991
2 55820  87.8979 114.4423 0000906 103.6783 256.4447 13.14501030 37451
